{
  "type": "FeatureCollection",
  "features": [
    {
      "type": "Feature",
      "properties": {
        "norad_id": 33924,
        "name": "COSMOS 2251 DEB",
        "group": "cosmos-2251-debris",
        "lat": -35.87023155256588,
        "lon": -97.09701647296984,
        "alt_km": 781.966233885656,
        "timestamp": "2025-12-09T18:55:17.624714+00:00",
        "meta_object_name": "COSMOS 2251 DEB",
        "meta_object_id": "1993-036ED",
        "meta_epoch": "2025-12-09T13:45:37.512576",
        "meta_mean_motion": 13.50217192,
        "meta_eccentricity": 0.04040538,
        "meta_inclination": 73.9143,
        "meta_ra_of_asc_node": 275.291,
        "meta_arg_of_pericenter": 311.301,
        "meta_mean_anomaly": 45.3955,
        "meta_ephemeris_type": 0,
        "meta_classification_type": "U",
        "meta_norad_cat_id": 33924,
        "meta_element_set_no": 999,
        "meta_rev_at_epoch": 82696,
        "meta_bstar": 0.0017420279,
        "meta_mean_motion_dot": 1.824e-05,
        "meta_mean_motion_ddot": 0,
        "tle_line1": "1 33924U 93036ED  25343.57335084  .00001824  00000+0  17420-2 0  9994",
        "tle_line2": "2 33924  73.9143 275.2910 0404053 311.3010  45.3955 13.50217192826964"
      },
      "geometry": {
        "type": "Point",
        "coordinates": [
          -97.09701647296984,
          -35.87023155256588
        ]
      }
    },
    {
      "type": "Feature",
      "properties": {
        "norad_id": 33928,
        "name": "COSMOS 2251 DEB",
        "group": "cosmos-2251-debris",
        "lat": -69.60472631883306,
        "lon": 7.272384864973011,
        "alt_km": 726.0319641712949,
        "timestamp": "2025-12-09T18:55:17.624724+00:00",
        "meta_object_name": "COSMOS 2251 DEB",
        "meta_object_id": "1993-036EH",
        "meta_epoch": "2025-12-09T06:00:15.024096",
        "meta_mean_motion": 14.47395228,
        "meta_eccentricity": 0.0061289,
        "meta_inclination": 73.9261,
        "meta_ra_of_asc_node": 59.1349,
        "meta_arg_of_pericenter": 354.006,
        "meta_mean_anomaly": 6.0357,
        "meta_ephemeris_type": 0,
        "meta_classification_type": "U",
        "meta_norad_cat_id": 33928,
        "meta_element_set_no": 999,
        "meta_rev_at_epoch": 88594,
        "meta_bstar": 0.0004366,
        "meta_mean_motion_dot": 1.61e-05,
        "meta_mean_motion_ddot": 0,
        "tle_line1": "1 33928U 93036EH  25343.25017389  .00001610  00000+0  43660-3 0  9997",
        "tle_line2": "2 33928  73.9261  59.1349 0061289 354.0060   6.0357 14.47395228885940"
      },
      "geometry": {
        "type": "Point",
        "coordinates": [
          7.272384864973011,
          -69.60472631883306
        ]
      }
    },
    {
      "type": "Feature",
      "properties": {
        "norad_id": 33932,
        "name": "COSMOS 2251 DEB",
        "group": "cosmos-2251-debris",
        "lat": 25.73712996635047,
        "lon": 133.42873281825499,
        "alt_km": 771.8421355924584,
        "timestamp": "2025-12-09T18:55:17.624734+00:00",
        "meta_object_name": "COSMOS 2251 DEB",
        "meta_object_id": "1993-036EM",
        "meta_epoch": "2025-12-09T09:52:17.504544",
        "meta_mean_motion": 14.38743008,
        "meta_eccentricity": 0.00351422,
        "meta_inclination": 74.0347,
        "meta_ra_of_asc_node": 322.0562,
        "meta_arg_of_pericenter": 39.1528,
        "meta_mean_anomaly": 321.2159,
        "meta_ephemeris_type": 0,
        "meta_classification_type": "U",
        "meta_norad_cat_id": 33932,
        "meta_element_set_no": 999,
        "meta_rev_at_epoch": 87950,
        "meta_bstar": 0.00083952024,
        "meta_mean_motion_dot": 2.571e-05,
        "meta_mean_motion_ddot": 0,
        "tle_line1": "1 33932U 93036EM  25343.41131371  .00002571  00000+0  83952-3 0  9993",
        "tle_line2": "2 33932  74.0347 322.0562 0035142  39.1528 321.2159 14.38743008879500"
      },
      "geometry": {
        "type": "Point",
        "coordinates": [
          133.42873281825499,
          25.73712996635047
        ]
      }
    },
    {
      "type": "Feature",
      "properties": {
        "norad_id": 33933,
        "name": "COSMOS 2251 DEB",
        "group": "cosmos-2251-debris",
        "lat": 53.50055625338988,
        "lon": 88.18953378745938,
        "alt_km": 726.5034089301953,
        "timestamp": "2025-12-09T18:55:17.624745+00:00",
        "meta_object_name": "COSMOS 2251 DEB",
        "meta_object_id": "1993-036EN",
        "meta_epoch": "2025-12-09T15:18:38.190528",
        "meta_mean_motion": 14.33481575,
        "meta_eccentricity": 0.00707941,
        "meta_inclination": 74.0894,
        "meta_ra_of_asc_node": 65.7895,
        "meta_arg_of_pericenter": 75.1308,
        "meta_mean_anomaly": 285.767,
        "meta_ephemeris_type": 0,
        "meta_classification_type": "U",
        "meta_norad_cat_id": 33933,
        "meta_element_set_no": 999,
        "meta_rev_at_epoch": 87740,
        "meta_bstar": 0.00049516749,
        "meta_mean_motion_dot": 1.382e-05,
        "meta_mean_motion_ddot": 0,
        "tle_line1": "1 33933U 93036EN  25343.63794202  .00001382  00000+0  49517-3 0  9994",
        "tle_line2": "2 33933  74.0894  65.7895 0070794  75.1308 285.7670 14.33481575877408"
      },
      "geometry": {
        "type": "Point",
        "coordinates": [
          88.18953378745938,
          53.50055625338988
        ]
      }
    },
    {
      "type": "Feature",
      "properties": {
        "norad_id": 33934,
        "name": "COSMOS 2251 DEB",
        "group": "cosmos-2251-debris",
        "lat": -72.13052904127078,
        "lon": -11.213970140216476,
        "alt_km": 693.6437014897756,
        "timestamp": "2025-12-09T18:55:17.624755+00:00",
        "meta_object_name": "COSMOS 2251 DEB",
        "meta_object_id": "1993-036EP",
        "meta_epoch": "2025-12-09T11:08:33.539712",
        "meta_mean_motion": 14.59060913,
        "meta_eccentricity": 0.00157995,
        "meta_inclination": 74.0383,
        "meta_ra_of_asc_node": 106.8122,
        "meta_arg_of_pericenter": 230.6664,
        "meta_mean_anomaly": 129.3102,
        "meta_ephemeris_type": 0,
        "meta_classification_type": "U",
        "meta_norad_cat_id": 33934,
        "meta_element_set_no": 999,
        "meta_rev_at_epoch": 88691,
        "meta_bstar": 0.0015217155,
        "meta_mean_motion_dot": 7.145e-05,
        "meta_mean_motion_ddot": 0,
        "tle_line1": "1 33934U 93036EP  25343.46427708  .00007145  00000+0  15217-2 0  9992",
        "tle_line2": "2 33934  74.0383 106.8122 0015799 230.6664 129.3102 14.59060913886915"
      },
      "geometry": {
        "type": "Point",
        "coordinates": [
          -11.213970140216476,
          -72.13052904127078
        ]
      }
    },
    {
      "type": "Feature",
      "properties": {
        "norad_id": 33936,
        "name": "COSMOS 2251 DEB",
        "group": "cosmos-2251-debris",
        "lat": 2.5450697741281316,
        "lon": -137.6049777851695,
        "alt_km": 676.4719593047494,
        "timestamp": "2025-12-09T18:55:17.624765+00:00",
        "meta_object_name": "COSMOS 2251 DEB",
        "meta_object_id": "1993-036ER",
        "meta_epoch": "2025-12-09T11:32:04.567488",
        "meta_mean_motion": 14.60238234,
        "meta_eccentricity": 0.00277593,
        "meta_inclination": 74.0188,
        "meta_ra_of_asc_node": 43.7128,
        "meta_arg_of_pericenter": 199.7847,
        "meta_mean_anomaly": 160.2244,
        "meta_ephemeris_type": 0,
        "meta_classification_type": "U",
        "meta_norad_cat_id": 33936,
        "meta_element_set_no": 999,
        "meta_rev_at_epoch": 88842,
        "meta_bstar": 0.0011514782,
        "meta_mean_motion_dot": 5.559e-05,
        "meta_mean_motion_ddot": 0,
        "tle_line1": "1 33936U 93036ER  25343.48060842  .00005559  00000+0  11515-2 0  9992",
        "tle_line2": "2 33936  74.0188  43.7128 0027759 199.7847 160.2244 14.60238234888426"
      },
      "geometry": {
        "type": "Point",
        "coordinates": [
          -137.6049777851695,
          2.5450697741281316
        ]
      }
    },
    {
      "type": "Feature",
      "properties": {
        "norad_id": 33938,
        "name": "COSMOS 2251 DEB",
        "group": "cosmos-2251-debris",
        "lat": 5.828556734795922,
        "lon": 31.013108761914395,
        "alt_km": 744.2196869182562,
        "timestamp": "2025-12-09T18:55:17.624775+00:00",
        "meta_object_name": "COSMOS 2251 DEB",
        "meta_object_id": "1993-036ET",
        "meta_epoch": "2025-12-09T14:56:00.208896",
        "meta_mean_motion": 14.46779492,
        "meta_eccentricity": 0.00168628,
        "meta_inclination": 74.045,
        "meta_ra_of_asc_node": 212.9967,
        "meta_arg_of_pericenter": 295.3867,
        "meta_mean_anomaly": 93.4524,
        "meta_ephemeris_type": 0,
        "meta_classification_type": "U",
        "meta_norad_cat_id": 33938,
        "meta_element_set_no": 999,
        "meta_rev_at_epoch": 88355,
        "meta_bstar": 0.00070324366,
        "meta_mean_motion_dot": 2.524e-05,
        "meta_mean_motion_ddot": 0,
        "tle_line1": "1 33938U 93036ET  25343.62222464  .00002524  00000+0  70324-3 0  9993",
        "tle_line2": "2 33938  74.0450 212.9967 0016862 295.3867  93.4524 14.46779492883556"
      },
      "geometry": {
        "type": "Point",
        "coordinates": [
          31.013108761914395,
          5.828556734795922
        ]
      }
    }
  ]
}